[{"OBJECT_NAME":"KAZSTSAT","OBJECT_ID":"2018-099AB","EPOCH":"2026-03-09T14:51:18.118944","MEAN_MOTION":14.99620503,"ECCENTRICITY":0.0006528,"INCLINATION":97.4396,"RA_OF_ASC_NODE":105.0128,"ARG_OF_PERICENTER":11.1145,"MEAN_ANOMALY":349.0222,"EPHEMERIS_TYPE":0,"CLASSIFICATION_TYPE":"U","NORAD_CAT_ID":43783,"ELEMENT_SET_NO":999,"REV_AT_EPOCH":39638,"BSTAR":0.00011446,"MEAN_MOTION_DOT":1.354e-5,"MEAN_MOTION_DDOT":0},{"OBJECT_NAME":"STARLINK-5864","OBJECT_ID":"2023-037AC","EPOCH":"2026-03-09T21:53:20.184288","MEAN_MOTION":14.98316778,"ECCENTRICITY":0.0002723,"INCLINATION":69.998,"RA_OF_ASC_NODE":283.8894,"ARG_OF_PERICENTER":269.3008,"MEAN_ANOMALY":90.7839,"EPHEMERIS_TYPE":0,"CLASSIFICATION_TYPE":"U","NORAD_CAT_ID":55940,"ELEMENT_SET_NO":999,"REV_AT_EPOCH":16401,"BSTAR":5.7458998e-5,"MEAN_MOTION_DOT":5.92e-6,"MEAN_MOTION_DDOT":0}]
